OBJECT_NAME,OBJECT_ID,EPOCH,MEAN_MOTION,ECCENTRICITY,INCLINATION,RA_OF_ASC_NODE,ARG_OF_PERICENTER,MEAN_ANOMALY,EPHEMERIS_TYPE,CLASSIFICATION_TYPE,NORAD_CAT_ID,ELEMENT_SET_NO,REV_AT_EPOCH,BSTAR,MEAN_MOTION_DOT,MEAN_MOTION_DDOT
STARLINK-32469,2024-196Q,2026-03-09T09:20:49.941888,15.30192485,.0001054,53.1601,102.5175,81.5233,278.5887,0,U,61721,999,7711,.31791E-4,.582E-5,0
OBJECT BC,2025-313BC,2026-03-08T17:33:30.106080,15.29053282,.00085081,97.3987,144.3551,331.4930,28.5844,0,U,67298,999,782,.39787182E-2,.113849E-2,0
